[
    {
        "Altitude(m)": 557544.744561177,
        "Argument of Periapsis(deg)": 0.013245982221427002,
        "Eccentricity": 0.0,
        "Inclination(deg)": 53.0,
        "Latitude(deg)": 42.75841823321477,
        "Longitude(deg)": 124.55792209572448,
        "Mean Anomaly(deg)": 122.00138573515517,
        "RAAN(deg)": 89.98028673705603,
        "Satellite Name": "Starlink Shell 1 402",
        "Satellite Number": 402,
        "Semi-Major Axis(m)": 6931778.249405717,
        "Time(s)": 380
    },
    {
        "Altitude(m)": 557464.6967585912,
        "Argument of Periapsis(deg)": 0.013594560700938237,
        "Eccentricity": 0.0,
        "Inclination(deg)": 53.0,
        "Latitude(deg)": 42.394586760526586,
        "Longitude(deg)": 125.20907102637977,
        "Mean Anomaly(deg)": 122.62821693871187,
        "RAAN(deg)": 89.97976796697856,
        "Satellite Name": "Starlink Shell 1 402",
        "Satellite Number": 402,
        "Semi-Major Axis(m)": 6931778.249405717,
        "Time(s)": 390
    },
    {
        "Altitude(m)": 557384.0822092597,
        "Argument of Periapsis(deg)": 0.013943139180449475,
        "Eccentricity": 0.0,
        "Inclination(deg)": 53.0,
        "Latitude(deg)": 42.02659825843244,
        "Longitude(deg)": 125.85222933875286,
        "Mean Anomaly(deg)": 123.25504814226862,
        "RAAN(deg)": 89.97924919690108,
        "Satellite Name": "Starlink Shell 1 402",
        "Satellite Number": 402,
        "Semi-Major Axis(m)": 6931778.249405717,
        "Time(s)": 400
    },
    {
        "Altitude(m)": 557302.9523178457,
        "Argument of Periapsis(deg)": 0.014291717659960712,
        "Eccentricity": 0.0,
        "Inclination(deg)": 53.0,
        "Latitude(deg)": 41.65455183174129,
        "Longitude(deg)": 126.48750362698773,
        "Mean Anomaly(deg)": 123.8818793458253,
        "RAAN(deg)": 89.97873042682362,
        "Satellite Name": "Starlink Shell 1 402",
        "Satellite Number": 402,
        "Semi-Major Axis(m)": 6931778.249405717,
        "Time(s)": 410
    },
    {
        "Altitude(m)": 557221.3589603349,
        "Argument of Periapsis(deg)": 0.014640296139471948,
        "Eccentricity": 0.0,
        "Inclination(deg)": 53.0,
        "Latitude(deg)": 41.278544730427576,
        "Longitude(deg)": 127.11500262684413,
        "Mean Anomaly(deg)": 124.50871054938202,
        "RAAN(deg)": 89.97821165674614,
        "Satellite Name": "Starlink Shell 1 402",
        "Satellite Number": 402,
        "Semi-Major Axis(m)": 6931778.249405717,
        "Time(s)": 420
    },
    {
        "Altitude(m)": 557139.35445788,
        "Argument of Periapsis(deg)": 0.014988874618983185,
        "Eccentricity": 0.0,
        "Inclination(deg)": 53.0,
        "Latitude(deg)": 40.89867234395864,
        "Longitude(deg)": 127.73483739658086,
        "Mean Anomaly(deg)": 125.13554175293876,
        "RAAN(deg)": 89.97769288666866,
        "Satellite Name": "Starlink Shell 1 402",
        "Satellite Number": 402,
        "Semi-Major Axis(m)": 6931778.249405717,
        "Time(s)": 430
    },
    {
        "Altitude(m)": 557056.9915503702,
        "Argument of Periapsis(deg)": 0.015337453098494424,
        "Eccentricity": 0.0,
        "Inclination(deg)": 53.0,
        "Latitude(deg)": 40.51502820005157,
        "Longitude(deg)": 128.3471215159586,
        "Mean Anomaly(deg)": 125.76237295649545,
        "RAAN(deg)": 89.9771741165912,
        "Satellite Name": "Starlink Shell 1 402",
        "Satellite Number": 402,
        "Semi-Major Axis(m)": 6931778.249405717,
        "Time(s)": 440
    },
    {
        "Altitude(m)": 556974.3233697693,
        "Argument of Periapsis(deg)": 0.01568603157800566,
        "Eccentricity": 0.0,
        "Inclination(deg)": 53.0,
        "Latitude(deg)": 40.12770396750393,
        "Longitude(deg)": 128.95196979013318,
        "Mean Anomaly(deg)": 126.38920416005217,
        "RAAN(deg)": 89.97665534651372,
        "Satellite Name": "Starlink Shell 1 402",
        "Satellite Number": 402,
        "Semi-Major Axis(m)": 6931778.249405717,
        "Time(s)": 450
    },
    {
        "Altitude(m)": 556891.4034132113,
        "Argument of Periapsis(deg)": 0.0160346100575169,
        "Eccentricity": 0.0,
        "Inclination(deg)": 53.0,
        "Latitude(deg)": 39.73678946275564,
        "Longitude(deg)": 129.54949848376802,
        "Mean Anomaly(deg)": 127.01603536360885,
        "RAAN(deg)": 89.97613657643625,
        "Satellite Name": "Starlink Shell 1 402",
        "Satellite Number": 402,
        "Semi-Major Axis(m)": 6931778.249405717,
        "Time(s)": 460
    },
    {
        "Altitude(m)": 556808.2855158726,
        "Argument of Periapsis(deg)": 0.016383188537028134,
        "Eccentricity": 0.0,
        "Inclination(deg)": 53.0,
        "Latitude(deg)": 39.34237265985785,
        "Longitude(deg)": 130.1398255720201,
        "Mean Anomaly(deg)": 127.6428665671656,
        "RAAN(deg)": 89.97561780635878,
        "Satellite Name": "Starlink Shell 1 402",
        "Satellite Number": 402,
        "Semi-Major Axis(m)": 6931778.249405717,
        "Time(s)": 470
    },
    {
        "Altitude(m)": 556725.0238236461,
        "Argument of Periapsis(deg)": 0.01673176701653937,
        "Eccentricity": 0.0,
        "Inclination(deg)": 53.0,
        "Latitude(deg)": 38.94453970354097,
        "Longitude(deg)": 130.7230694950097,
        "Mean Anomaly(deg)": 128.26969777072233,
        "RAAN(deg)": 89.9750990362813,
        "Satellite Name": "Starlink Shell 1 402",
        "Satellite Number": 402,
        "Semi-Major Axis(m)": 6931778.249405717,
        "Time(s)": 480
    },
    {
        "Altitude(m)": 556641.6727656182,
        "Argument of Periapsis(deg)": 0.017080345496050607,
        "Eccentricity": 0.0,
        "Inclination(deg)": 53.0,
        "Latitude(deg)": 38.543374925085836,
        "Longitude(deg)": 131.29934944097582,
        "Mean Anomaly(deg)": 128.89652897427905,
        "RAAN(deg)": 89.97458026620383,
        "Satellite Name": "Starlink Shell 1 402",
        "Satellite Number": 402,
        "Semi-Major Axis(m)": 6931778.249405717,
        "Time(s)": 490
    },
    {
        "Altitude(m)": 556558.2870263528,
        "Argument of Periapsis(deg)": 0.017428923975561842,
        "Eccentricity": 0.0,
        "Inclination(deg)": 53.0,
        "Latitude(deg)": 38.1389608607226,
        "Longitude(deg)": 131.8687856446667,
        "Mean Anomaly(deg)": 129.52336017783574,
        "RAAN(deg)": 89.97406149612637,
        "Satellite Name": "Starlink Shell 1 402",
        "Satellite Number": 402,
        "Semi-Major Axis(m)": 6931778.249405717,
        "Time(s)": 500
    },
    {
        "Altitude(m)": 556474.9215180213,
        "Argument of Periapsis(deg)": 0.01777750245507308,
        "Eccentricity": 0.0,
        "Inclination(deg)": 53.0,
        "Latitude(deg)": 37.73137827229704,
        "Longitude(deg)": 132.43149818749808,
        "Mean Anomaly(deg)": 130.15019138139246,
        "RAAN(deg)": 89.97354272604889,
        "Satellite Name": "Starlink Shell 1 402",
        "Satellite Number": 402,
        "Semi-Major Axis(m)": 6931778.249405717,
        "Time(s)": 510
    },
    {
        "Altitude(m)": 556391.6313523559,
        "Argument of Periapsis(deg)": 0.018126080934584315,
        "Eccentricity": 0.0,
        "Inclination(deg)": 53.0,
        "Latitude(deg)": 37.320706169957376,
        "Longitude(deg)": 132.98760732462011,
        "Mean Anomaly(deg)": 130.77702258494918,
        "RAAN(deg)": 89.97302395597141,
        "Satellite Name": "Starlink Shell 1 402",
        "Satellite Number": 402,
        "Semi-Major Axis(m)": 6931778.249405717,
        "Time(s)": 520
    },
    {
        "Altitude(m)": 556308.471812496,
        "Argument of Periapsis(deg)": 0.018474659414095554,
        "Eccentricity": 0.0,
        "Inclination(deg)": 53.0,
        "Latitude(deg)": 36.90702183663103,
        "Longitude(deg)": 133.53723382540727,
        "Mean Anomaly(deg)": 131.4038537885059,
        "RAAN(deg)": 89.97250518589395,
        "Satellite Name": "Starlink Shell 1 402",
        "Satellite Number": 402,
        "Semi-Major Axis(m)": 6931778.249405717,
        "Time(s)": 530
    },
    {
        "Altitude(m)": 556225.498324653,
        "Argument of Periapsis(deg)": 0.018823237893606792,
        "Eccentricity": 0.0,
        "Inclination(deg)": 53.0,
        "Latitude(deg)": 36.490400854080164,
        "Longitude(deg)": 134.08049781387746,
        "Mean Anomaly(deg)": 132.0306849920626,
        "RAAN(deg)": 89.97198641581647,
        "Satellite Name": "Starlink Shell 1 402",
        "Satellite Number": 402,
        "Semi-Major Axis(m)": 6931778.249405717,
        "Time(s)": 540
    },
    {
        "Altitude(m)": 556142.7664297202,
        "Argument of Periapsis(deg)": 0.019171816373118027,
        "Eccentricity": 0.0,
        "Inclination(deg)": 53.0,
        "Latitude(deg)": 36.07091713033046,
        "Longitude(deg)": 134.6175191341781,
        "Mean Anomaly(deg)": 132.65751619561934,
        "RAAN(deg)": 89.971467645739,
        "Satellite Name": "Starlink Shell 1 402",
        "Satellite Number": 402,
        "Semi-Major Axis(m)": 6931778.249405717,
        "Time(s)": 550
    },
    {
        "Altitude(m)": 556060.3317547196,
        "Argument of Periapsis(deg)": 0.019520394852629266,
        "Eccentricity": 0.0,
        "Inclination(deg)": 53.0,
        "Latitude(deg)": 35.648642928289824,
        "Longitude(deg)": 135.1484177276547,
        "Mean Anomaly(deg)": 133.28434739917603,
        "RAAN(deg)": 89.97094887566152,
        "Satellite Name": "Starlink Shell 1 402",
        "Satellite Number": 402,
        "Semi-Major Axis(m)": 6931778.249405717,
        "Time(s)": 560
    }
]